BEIDOU-2 IGSO-5         
1 37948U 11073A   26175.65702808 -.00000196  00000+0  00000+0 0  9995
2 37948  47.6633 271.4526 0114223 222.0346 107.5350  1.00272136 53204
LUCH-5A                 
1 37951U 11074B   26175.55511365 -.00000049  00000+0  00000+0 0  9992
2 37951   8.7729  73.7008 0002656  31.6607 174.1088  1.00271915 53123
BEIDOU-2 G5             
1 38091U 12008A   26176.18018738  .00000063  00000+0  00000+0 0  9997
2 38091   3.5944  69.6576 0008772 275.7368  51.5000  1.00275083 52441
BEIDOU-2 M3             
1 38250U 12018A   26174.63219166 -.00000109  00000+0  00000+0 0  9993
2 38250  55.7518 304.6576 0020193 273.5233  86.2361  1.86229600 96063
BEIDOU-2 M4             
1 38251U 12018B   26174.56448814 -.00000108  00000+0  00000+0 0  9999
2 38251  55.6516 303.8740 0011628 274.1207  85.7373  1.86229575 96064
SES-5                   
1 38652U 12036A   26175.17139330  .00000041  00000+0  00000+0 0  9997
2 38652   0.0460 316.5083 0002026 134.5743 247.9235  1.00272305 44526
BEIDOU-2 M6             
1 38775U 12050B   26175.88506278 -.00000094  00000+0  00000+0 0  9995
2 38775  56.5509  62.6397 0013560 358.0228   2.0098  1.86231110 93451
GSAT-10                 
1 38779U 12051B   26175.97105792 -.00000156  00000+0  00000+0 0  9995
2 38779   0.0621 259.8021 0008103 190.3061 255.6116  1.00272205 50172
NAVSTAR 67 (USA 239)    
1 38833U 12053A   26174.79756486  .00000054  00000+0  00000+0 0  9995
2 38833  53.5871 143.3285 0180676  65.8518 296.0006  2.00567625 99579
GSAT0103 (GALILEO-FM3)  
1 38857U 12055A   26174.92807749 -.00000034  00000+0  00000+0 0  9996
2 38857  55.8103 101.3605 0004798 306.1762  53.7546  1.70473530 85120
BEIDOU-2 G6             
1 38953U 12059A   26175.11571288 -.00000171  00000+0  00000+0 0  9997
2 38953   4.4398  73.4545 0009797 327.8672 356.6455  1.00271582 49972
LUCH-5B                 
1 38977U 12061A   26175.95142001 -.00000137  00000+0  00000+0 0  9997
2 38977  10.5008  49.8064 0002438 137.6896  51.8517  1.00272591 49689
COSMOS 2485 [GLONASS-M] 
1 39155U 13019A   26174.94888940 -.00000068  00000+0  00000+0 0  9990
2 39155  65.4235  73.3773 0023016 233.5300 126.2899  2.13103180102423
NAVSTAR 68 (USA 242)    
1 39166U 13023A   26175.66184648 -.00000056  00000+0  00000+0 0  9998
2 39166  54.4981 268.6689 0141453  51.0437 310.2431  2.00563536 96033
IRNSS-1A                
1 39199U 13034A   26169.89544831  .00000051  00000+0  00000+0 0  9992
2 39199  35.7241  63.8469 0017589 183.2529  37.3106  1.00275723 47380
NAVSTAR 69 (USA 248)    
1 39533U 14008A   26175.66358266  .00000057  00000+0  00000+0 0  9999
2 39533  53.6557 149.0147 0084222 231.3777 127.8455  2.00560324 89832
ASTRA 5B                
1 39617U 14011B   26176.17316735  .00000146  00000+0  00000+0 0  9997
2 39617   0.0553 321.7035 0002187 114.1665 283.2524  1.00271683 44747
COSMOS 2492 [GLONASS-M] 
1 39620U 14012A   26174.90776451 -.00000082  00000+0  00000+0 0  9996
2 39620  65.2933 313.7069 0010214 323.0851  36.8355  2.13103141 95380
IRNSS-1B                
1 39635U 14017A   26173.75560031  .00000117  00000+0  00000+0 0  9992
2 39635  28.9065 240.3095 0023496 164.9008 193.0039  1.00268591 44840
LUCH-5V                 
1 39727U 14023A   26175.11796622 -.00000265  00000+0  00000+0 0  9995
2 39727   5.1506  69.6806 0002285  46.6072 293.2066  1.00272561 44420
NAVSTAR 70 (USA 251)    
1 39741U 14026A   26173.94481660 -.00000099  00000+0  00000+0 0  9991
2 39741  56.4953 331.2933 0038130 326.4275  33.3264  2.00560629 88654
COSMOS 2500 [GLONASS-M] 
1 40001U 14032A   26174.60818388 -.00000081  00000+0  00000+0 0  9995
2 40001  65.2280 313.4639 0007602 185.3509 174.6327  2.13105776 93593
NAVSTAR 71 (USA 256)    
1 40105U 14045A   26175.03379093 -.00000063  00000+0  00000+0 0  9997
2 40105  55.3575  88.1921 0033600 118.2393 242.1018  2.00558930 86217
GSAT0201 (GALILEO 5)    
1 40128U 14050A   26174.88474382 -.00000089  00000+0  00000+0 0  9995
2 40128  48.8679 273.1615 1675606 179.6526 180.5284  1.85520117 78442
GSAT0202 (GALILEO 6)    
1 40129U 14050B   26174.06229159 -.00000091  00000+0  00000+0 0  9999
2 40129  48.8856 272.2808 1676647 180.3494 179.5640  1.85520676 80596
IRNSS-1C                
1 40269U 14061A   26174.91613389 -.00000157  00000+0  00000+0 0  9995
2 40269   6.5342  88.8035 0022624   3.2397 232.7468  1.00268265 42755
NAVSTAR 72 (USA 258)    
1 40294U 14068A   26175.90027962 -.00000090  00000+0  00000+0 0  9992
2 40294  56.9929  30.6575 0067208  70.8868 289.8931  2.00576832 85362
COSMOS 2501 [GLONASS-K] 
1 40315U 14075A   26175.33959341  .00000105  00000+0  00000+0 0  9992
2 40315  63.6173 190.1245 0022649 212.5723 147.3362  2.13101398 90001
NAVSTAR 73 (USA 260)    
1 40534U 15013A   26175.04292286  .00000077  00000+0  00000+0 0  9992
2 40534  53.1675 203.8938 0109701  40.1849 320.6852  2.00551017 81963
GSAT0203 (GALILEO 7)    
1 40544U 15017A   26173.49205961 -.00000098  00000+0  00000+0 0  9992
2 40544  56.7854 341.4508 0002098 272.3017  87.6709  1.70476233 69296
GSAT0204 (GALILEO 8)    
1 40545U 15017B   26174.33444954 -.00000098  00000+0  00000+0 0  9994
2 40545  56.7911 341.4465 0002094 240.9399 119.0360  1.70475830 32355
